<?xml version="1.0" encoding="UTF-8"?>
<ndm xmlns:xsi="http://www.w3.org/2001/XMLSchema-instance" xsi:noNamespaceSchemaLocation="https://sanaregistry.org/r/ndmxml_unqualified/ndmxml-2.0.0-master-2.0.xsd">
<omm id="CCSDS_OMM_VERS" version="2.0">
<header><CREATION_DATE/><ORIGINATOR/></header><body><segment><metadata><OBJECT_NAME>KUIPER-00246</OBJECT_NAME><OBJECT_ID>2025-301U</OBJECT_ID><CENTER_NAME>EARTH</CENTER_NAME><REF_FRAME>TEME</REF_FRAME><TIME_SYSTEM>UTC</TIME_SYSTEM><MEAN_ELEMENT_THEORY>SGP4</MEAN_ELEMENT_THEORY></metadata><data><meanElements><EPOCH>2026-01-01T14:47:23.754624</EPOCH><MEAN_MOTION>15.36205837</MEAN_MOTION><ECCENTRICITY>.00041354</ECCENTRICITY><INCLINATION>51.8738</INCLINATION><RA_OF_ASC_NODE>29.2177</RA_OF_ASC_NODE><ARG_OF_PERICENTER>130.9224</ARG_OF_PERICENTER><MEAN_ANOMALY>229.2120</MEAN_ANOMALY></meanElements><tleParameters><EPHEMERIS_TYPE>0</EPHEMERIS_TYPE><CLASSIFICATION_TYPE>U</CLASSIFICATION_TYPE><NORAD_CAT_ID>67151</NORAD_CAT_ID><ELEMENT_SET_NO>999</ELEMENT_SET_NO><REV_AT_EPOCH>344</REV_AT_EPOCH><BSTAR>.90663816E-3</BSTAR><MEAN_MOTION_DOT>.32243E-3</MEAN_MOTION_DOT><MEAN_MOTION_DDOT>0</MEAN_MOTION_DDOT></tleParameters></data></segment></body></omm>
<omm id="CCSDS_OMM_VERS" version="2.0">
<header><CREATION_DATE/><ORIGINATOR/></header><body><segment><metadata><OBJECT_NAME>KUIPER-00247</OBJECT_NAME><OBJECT_ID>2025-301V</OBJECT_ID><CENTER_NAME>EARTH</CENTER_NAME><REF_FRAME>TEME</REF_FRAME><TIME_SYSTEM>UTC</TIME_SYSTEM><MEAN_ELEMENT_THEORY>SGP4</MEAN_ELEMENT_THEORY></metadata><data><meanElements><EPOCH>2026-01-01T15:17:24.349632</EPOCH><MEAN_MOTION>15.34355205</MEAN_MOTION><ECCENTRICITY>.00111084</ECCENTRICITY><INCLINATION>51.8633</INCLINATION><RA_OF_ASC_NODE>29.3502</RA_OF_ASC_NODE><ARG_OF_PERICENTER>172.2198</ARG_OF_PERICENTER><MEAN_ANOMALY>187.8961</MEAN_ANOMALY></meanElements><tleParameters><EPHEMERIS_TYPE>0</EPHEMERIS_TYPE><CLASSIFICATION_TYPE>U</CLASSIFICATION_TYPE><NORAD_CAT_ID>67152</NORAD_CAT_ID><ELEMENT_SET_NO>999</ELEMENT_SET_NO><REV_AT_EPOCH>342</REV_AT_EPOCH><BSTAR>.94367544E-3</BSTAR><MEAN_MOTION_DOT>.31681E-3</MEAN_MOTION_DOT><MEAN_MOTION_DDOT>0</MEAN_MOTION_DDOT></tleParameters></data></segment></body></omm>
<omm id="CCSDS_OMM_VERS" version="2.0">
<header><CREATION_DATE/><ORIGINATOR/></header><body><segment><metadata><OBJECT_NAME>KUIPER-00248</OBJECT_NAME><OBJECT_ID>2025-301W</OBJECT_ID><CENTER_NAME>EARTH</CENTER_NAME><REF_FRAME>TEME</REF_FRAME><TIME_SYSTEM>UTC</TIME_SYSTEM><MEAN_ELEMENT_THEORY>SGP4</MEAN_ELEMENT_THEORY></metadata><data><meanElements><EPOCH>2026-01-01T15:07:03.023040</EPOCH><MEAN_MOTION>15.35053614</MEAN_MOTION><ECCENTRICITY>.00088276</ECCENTRICITY><INCLINATION>51.8677</INCLINATION><RA_OF_ASC_NODE>29.3071</RA_OF_ASC_NODE><ARG_OF_PERICENTER>159.5217</ARG_OF_PERICENTER><MEAN_ANOMALY>200.6124</MEAN_ANOMALY></meanElements><tleParameters><EPHEMERIS_TYPE>0</EPHEMERIS_TYPE><CLASSIFICATION_TYPE>U</CLASSIFICATION_TYPE><NORAD_CAT_ID>67153</NORAD_CAT_ID><ELEMENT_SET_NO>999</ELEMENT_SET_NO><REV_AT_EPOCH>359</REV_AT_EPOCH><BSTAR>.12610617E-2</BSTAR><MEAN_MOTION_DOT>.43463E-3</MEAN_MOTION_DOT><MEAN_MOTION_DDOT>0</MEAN_MOTION_DDOT></tleParameters></data></segment></body></omm>
<omm id="CCSDS_OMM_VERS" version="2.0">
<header><CREATION_DATE/><ORIGINATOR/></header><body><segment><metadata><OBJECT_NAME>KUIPER-00249</OBJECT_NAME><OBJECT_ID>2025-301X</OBJECT_ID><CENTER_NAME>EARTH</CENTER_NAME><REF_FRAME>TEME</REF_FRAME><TIME_SYSTEM>UTC</TIME_SYSTEM><MEAN_ELEMENT_THEORY>SGP4</MEAN_ELEMENT_THEORY></metadata><data><meanElements><EPOCH>2026-01-01T15:04:20.111520</EPOCH><MEAN_MOTION>15.35181996</MEAN_MOTION><ECCENTRICITY>.00084301</ECCENTRICITY><INCLINATION>51.8652</INCLINATION><RA_OF_ASC_NODE>29.2935</RA_OF_ASC_NODE><ARG_OF_PERICENTER>157.6028</ARG_OF_PERICENTER><MEAN_ANOMALY>202.5328</MEAN_ANOMALY></meanElements><tleParameters><EPHEMERIS_TYPE>0</EPHEMERIS_TYPE><CLASSIFICATION_TYPE>U</CLASSIFICATION_TYPE><NORAD_CAT_ID>67154</NORAD_CAT_ID><ELEMENT_SET_NO>999</ELEMENT_SET_NO><REV_AT_EPOCH>342</REV_AT_EPOCH><BSTAR>.1401728E-2</BSTAR><MEAN_MOTION_DOT>.48582E-3</MEAN_MOTION_DOT><MEAN_MOTION_DDOT>0</MEAN_MOTION_DDOT></tleParameters></data></segment></body></omm>
<omm id="CCSDS_OMM_VERS" version="2.0">
<header><CREATION_DATE/><ORIGINATOR/></header><body><segment><metadata><OBJECT_NAME>KUIPER-00250</OBJECT_NAME><OBJECT_ID>2025-301Y</OBJECT_ID><CENTER_NAME>EARTH</CENTER_NAME><REF_FRAME>TEME</REF_FRAME><TIME_SYSTEM>UTC</TIME_SYSTEM><MEAN_ELEMENT_THEORY>SGP4</MEAN_ELEMENT_THEORY></metadata><data><meanElements><EPOCH>2026-01-01T14:56:34.914912</EPOCH><MEAN_MOTION>15.35725682</MEAN_MOTION><ECCENTRICITY>.00064895</ECCENTRICITY><INCLINATION>51.8715</INCLINATION><RA_OF_ASC_NODE>29.2613</RA_OF_ASC_NODE><ARG_OF_PERICENTER>146.1331</ARG_OF_PERICENTER><MEAN_ANOMALY>214.0070</MEAN_ANOMALY></meanElements><tleParameters><EPHEMERIS_TYPE>0</EPHEMERIS_TYPE><CLASSIFICATION_TYPE>U</CLASSIFICATION_TYPE><NORAD_CAT_ID>67155</NORAD_CAT_ID><ELEMENT_SET_NO>999</ELEMENT_SET_NO><REV_AT_EPOCH>345</REV_AT_EPOCH><BSTAR>.14078385E-2</BSTAR><MEAN_MOTION_DOT>.49641E-3</MEAN_MOTION_DOT><MEAN_MOTION_DDOT>0</MEAN_MOTION_DDOT></tleParameters></data></segment></body></omm>
<omm id="CCSDS_OMM_VERS" version="2.0">
<header><CREATION_DATE/><ORIGINATOR/></header><body><segment><metadata><OBJECT_NAME>KUIPER-00251</OBJECT_NAME><OBJECT_ID>2025-301Z</OBJECT_ID><CENTER_NAME>EARTH</CENTER_NAME><REF_FRAME>TEME</REF_FRAME><TIME_SYSTEM>UTC</TIME_SYSTEM><MEAN_ELEMENT_THEORY>SGP4</MEAN_ELEMENT_THEORY></metadata><data><meanElements><EPOCH>2026-01-01T13:31:52.607712</EPOCH><MEAN_MOTION>15.35151538</MEAN_MOTION><ECCENTRICITY>.00090809</ECCENTRICITY><INCLINATION>51.8665</INCLINATION><RA_OF_ASC_NODE>29.6134</RA_OF_ASC_NODE><ARG_OF_PERICENTER>154.4829</ARG_OF_PERICENTER><MEAN_ANOMALY>205.6606</MEAN_ANOMALY></meanElements><tleParameters><EPHEMERIS_TYPE>0</EPHEMERIS_TYPE><CLASSIFICATION_TYPE>U</CLASSIFICATION_TYPE><NORAD_CAT_ID>67156</NORAD_CAT_ID><ELEMENT_SET_NO>999</ELEMENT_SET_NO><REV_AT_EPOCH>360</REV_AT_EPOCH><BSTAR>.12683968E-2</BSTAR><MEAN_MOTION_DOT>.43861E-3</MEAN_MOTION_DOT><MEAN_MOTION_DDOT>0</MEAN_MOTION_DDOT></tleParameters></data></segment></body></omm>
<omm id="CCSDS_OMM_VERS" version="2.0">
<header><CREATION_DATE/><ORIGINATOR/></header><body><segment><metadata><OBJECT_NAME>KUIPER-00252</OBJECT_NAME><OBJECT_ID>2025-301AA</OBJECT_ID><CENTER_NAME>EARTH</CENTER_NAME><REF_FRAME>TEME</REF_FRAME><TIME_SYSTEM>UTC</TIME_SYSTEM><MEAN_ELEMENT_THEORY>SGP4</MEAN_ELEMENT_THEORY></metadata><data><meanElements><EPOCH>2026-01-01T15:13:10.241184</EPOCH><MEAN_MOTION>15.34502667</MEAN_MOTION><ECCENTRICITY>.00098459</ECCENTRICITY><INCLINATION>51.8657</INCLINATION><RA_OF_ASC_NODE>29.3334</RA_OF_ASC_NODE><ARG_OF_PERICENTER>166.1360</ARG_OF_PERICENTER><MEAN_ANOMALY>193.9897</MEAN_ANOMALY></meanElements><tleParameters><EPHEMERIS_TYPE>0</EPHEMERIS_TYPE><CLASSIFICATION_TYPE>U</CLASSIFICATION_TYPE><NORAD_CAT_ID>67157</NORAD_CAT_ID><ELEMENT_SET_NO>999</ELEMENT_SET_NO><REV_AT_EPOCH>342</REV_AT_EPOCH><BSTAR>.94678774E-3</BSTAR><MEAN_MOTION_DOT>.31925E-3</MEAN_MOTION_DOT><MEAN_MOTION_DDOT>0</MEAN_MOTION_DDOT></tleParameters></data></segment></body></omm>
<omm id="CCSDS_OMM_VERS" version="2.0">
<header><CREATION_DATE/><ORIGINATOR/></header><body><segment><metadata><OBJECT_NAME>KUIPER-00261</OBJECT_NAME><OBJECT_ID>2025-301AB</OBJECT_ID><CENTER_NAME>EARTH</CENTER_NAME><REF_FRAME>TEME</REF_FRAME><TIME_SYSTEM>UTC</TIME_SYSTEM><MEAN_ELEMENT_THEORY>SGP4</MEAN_ELEMENT_THEORY></metadata><data><meanElements><EPOCH>2026-01-01T14:00:01.999872</EPOCH><MEAN_MOTION>15.35621680</MEAN_MOTION><ECCENTRICITY>.000609</ECCENTRICITY><INCLINATION>51.8693</INCLINATION><RA_OF_ASC_NODE>29.4408</RA_OF_ASC_NODE><ARG_OF_PERICENTER>140.8624</ARG_OF_PERICENTER><MEAN_ANOMALY>7.5960</MEAN_ANOMALY></meanElements><tleParameters><EPHEMERIS_TYPE>0</EPHEMERIS_TYPE><CLASSIFICATION_TYPE>U</CLASSIFICATION_TYPE><NORAD_CAT_ID>67158</NORAD_CAT_ID><ELEMENT_SET_NO>999</ELEMENT_SET_NO><REV_AT_EPOCH>288</REV_AT_EPOCH><BSTAR>.22323556E-2</BSTAR><MEAN_MOTION_DOT>.78978E-3</MEAN_MOTION_DOT><MEAN_MOTION_DDOT>0</MEAN_MOTION_DDOT></tleParameters></data></segment></body></omm>
<omm id="CCSDS_OMM_VERS" version="2.0">
<header><CREATION_DATE/><ORIGINATOR/></header><body><segment><metadata><OBJECT_NAME>KUIPER-00265</OBJECT_NAME><OBJECT_ID>2025-301AC</OBJECT_ID><CENTER_NAME>EARTH</CENTER_NAME><REF_FRAME>TEME</REF_FRAME><TIME_SYSTEM>UTC</TIME_SYSTEM><MEAN_ELEMENT_THEORY>SGP4</MEAN_ELEMENT_THEORY></metadata><data><meanElements><EPOCH>2026-01-01T14:39:52.217856</EPOCH><MEAN_MOTION>15.36711939</MEAN_MOTION><ECCENTRICITY>.00020919</ECCENTRICITY><INCLINATION>51.8741</INCLINATION><RA_OF_ASC_NODE>29.1847</RA_OF_ASC_NODE><ARG_OF_PERICENTER>108.3939</ARG_OF_PERICENTER><MEAN_ANOMALY>251.7275</MEAN_ANOMALY></meanElements><tleParameters><EPHEMERIS_TYPE>0</EPHEMERIS_TYPE><CLASSIFICATION_TYPE>U</CLASSIFICATION_TYPE><NORAD_CAT_ID>67159</NORAD_CAT_ID><ELEMENT_SET_NO>999</ELEMENT_SET_NO><REV_AT_EPOCH>345</REV_AT_EPOCH><BSTAR>.1662592E-2</BSTAR><MEAN_MOTION_DOT>.6065E-3</MEAN_MOTION_DOT><MEAN_MOTION_DDOT>0</MEAN_MOTION_DDOT></tleParameters></data></segment></body></omm>
</ndm>
